IRIDIUM 57              
1 25273U 98019B   24281.52578521  .00002321  00000+0  80121-3 0  9990
2 25273  86.3928 251.0337 0002372  90.2216 269.9252 14.35458946388533
IRIDIUM 63              
1 25286U 98021B   24281.50493997  .00002337  00000+0  79706-3 0  9992
2 25286  86.4058 188.0137 0002367  78.9812 281.1651 14.36068277387575
IRIDIUM 69              
1 25319U 98026A   24281.51990270  .00003575  00000+0  11214-2 0  9995
2 25319  86.4043 202.0356 0004259 109.5466 250.6193 14.40357729386685
IRIDIUM 71              
1 25320U 98026B   24281.49606265  .00002674  00000+0  83250-3 0  9991
2 25320  86.4047 196.7904 0002402 137.1578 222.9809 14.40641666387209
IRIDIUM 73              
1 25344U 98032C   24281.52298144  .00002730  00000+0  68616-3 0  9993
2 25344  86.4452 154.0737 0002745  93.0929 267.0590 14.50966607394218
IRIDIUM 82              
1 25467U 98051A   24281.85997953  .00040992  00000+0  17983-2 0  9992
2 25467  86.3750 232.0827 0117044 162.4633 198.0705 15.15722473385521
